XRISM                   
1 57800U 23137A   24154.93199302  .00004880  00000+0  36635-3 0  9993
2 57800  31.0026 103.3443 0009330  66.4085 293.7529 15.01042258 40465
